#dP2024  7  6  6  0  0.00000000      96 __u+U IGS20 EXT  IAC
## 2321 540000.00000000   900.00000000 60497 0.2500000000000
+   54   G02G03G04G05G06G07G08G09G10G11G12G13G14G15G16G17G18
+        G19G20G21G22G23G24G25G26G27G28G29G30G31G32R01R02R03
+        R04R05R07R08R09R11R12R13R14R15R16R17R18R19R20R21R22
+        R24R25R26  0  0  0  0  0  0  0  0  0  0  0  0  0  0
+          0  0  0  0  0  0  0  0  0  0  0  0  0  0  0  0  0
++         8  8  8  7  9  9  8  9  8  8  8  8  8  9  9 10  8
++         8  8  7  8  9  8  9  8  9  9  9  8  9  9  8  8  9
++         8  8  8  9  8  9  9  8  8  8  9  9  9  9  9  8  8
++         9  8  8  0  0  0  0  0  0  0  0  0  0  0  0  0  0
++         0  0  0  0  0  0  0  0  0  0  0  0  0  0  0  0  0
%c M  cc GPS ccc cccc cccc cccc cccc ccccc ccccc ccccc ccccc
%c cc cc ccc ccc cccc cccc cccc cccc ccccc ccccc ccccc ccccc
%f  0.0000000  0.000000000  0.00000000000  0.000000000000000
%f  0.0000000  0.000000000  0.00000000000  0.000000000000000
%i    0    0    0    0      0      0      0      0         0
%i    0    0    0    0      0      0      0      0         0
/* IAC                                ULTRA-RAPID PREDICTION
/* S/V CLOCKS ARE ALIGNED TO GNSS TIME                      
/* G:C1WC2W R:C1PC2P E:C1XC5X C:C2IC6I J:C1CC2S             
/* PCV:IGS20_2317 OL/AL:FES2004  NONE     YN ORB:CoN CLK:CoN
*  2024 07 06 23 30  0.00000000
PG02 -15275.320782   1893.824502  22136.154789   -403.994858
PG03 -22402.270753  11752.106520   7725.329352    446.826609
PG04 -22530.808937   1269.906526 -14101.026187    398.468333
PG05  18163.071276   1483.022297 -19534.177974   -178.859952
PG06   4982.148543  25983.964337  -1465.631540    176.795414
PG07  -7255.981882  20264.498077 -14727.844097    -75.419686
PG08 -25871.338201  -5835.454496   3686.388046    263.117981
PG09 -12992.661110  10802.660969 -20589.410297    263.038105
PG10   3956.666922 -18955.332001  18235.065594    -59.741979
PG11  12111.649666  19004.262838 -14081.029740   -700.042525
PG12  23166.824226  -8453.272612   9519.295118   -520.161286
PG13  22441.359944  14241.398875  -2651.300095    662.854008
PG14  -7839.634048  20200.725614  15252.548526    442.739624
PG15  26232.466010   2944.663692   3231.772130    178.219126
PG16 -16034.765184  -6415.977205 -20624.627462   -243.903616
PG17   1471.623868  16523.443997  21127.291583    682.446196
PG18   7028.660222 -20788.920689 -14797.996518   -633.686687
PG19  11375.350021  17948.377082  16016.597676    506.773170
PG20  11453.922498  10187.649900 -21626.145005    373.039984
PG21 -16438.380531  -4964.349625  20932.378613    110.628359
PG22   -675.597942  17677.894248  20314.918575    -36.454840
PG23  14454.209802 -20393.656253   8687.957464    267.705441
PG24  16063.024035    488.972222  20769.928044   -481.921579
PG25  20260.180092 -16934.747516    482.787343    498.241257
PG26  -5519.106420 -15994.060926 -20552.088082    124.543927
PG27 -22326.236183 -13221.915167  -6922.527996    -30.458607
PG28  -4581.121320 -26142.130031   1016.342092   -320.390093
PG29  16577.293966  -7111.967292 -19585.861681   -590.825753
PG30     33.239020  25745.366642  -5775.356906   -362.180386
PG31 -10628.450718 -21911.700842 -10333.027090   -226.953701
PG32  -4850.519946 -16762.810466  20292.783799   -613.421256
PR01  -2257.666661 -10805.761115  22994.414459     90.582751
PR02 -18920.654763  -7150.163607  15626.698380    -23.600715
PR03 -25515.001344    760.941227   -745.258611    103.357252
PR04 -18041.876787   7638.227677 -16313.483646    244.238169
PR05   -985.001378  10675.343379 -23136.030395    134.163639
PR07  25408.673834  -1135.381491   1618.386386     86.110820
PR08  17700.793137  -8009.455037  16569.362851     -5.681151
PR09   6825.970701  10751.347514  22111.737116    196.246846
PR11  14735.315010 -19209.233716   8081.611431     19.010964
PR12   5925.118524 -22082.660699 -11269.954327     42.139333
PR13  -4681.045184 -13104.530850 -21384.374810    -49.066063
PR14 -14451.403495   6322.873389 -20019.326814     26.654544
PR15 -14486.692051  19978.556233  -6408.135625     78.115638
PR16  -5982.683178  22117.417464  11186.023179     27.117041
PR17 -14205.464341  -5661.804376  20403.792193    102.311248
PR18  -5989.359711  10123.742056  22638.093897    150.652016
PR19   3511.459955  20523.085547  14737.948883   -282.953758
PR20  13899.033822  20554.189571  -5840.074793   -115.735450
PR21  14240.760865   6263.401710 -20230.247996   -115.386601
PR22   5807.986146 -11259.781852 -22117.834528     92.514351
PR24 -15058.153897 -19579.194261   6336.031873    -62.760813
PR25  14151.607559   5842.049161 -20408.454196    -95.081535
PR26  18788.587644  -7641.504644  15503.657654     -4.618135
*  2024 07 06 23 45  0.00000000
PG02 -15936.206331   -419.217287  21762.150712   -403.988321
PG03 -21726.648032  10918.863816  10378.541617    446.841911
PG04 -23850.667557    577.314824 -11802.066132    398.475432
PG05  16601.222589   3119.371325 -20699.954165   -178.861148
PG06   4805.497674  26024.735129   1452.764960    176.775371
PG07  -7863.407616  18446.888558 -16656.155110    -75.412237
PG08 -26061.673762  -6146.401004    886.964676    263.133156
PG09 -15138.573911  10041.444143 -19478.811180    263.051482
PG10   5506.088888 -20150.377965  16413.236427    -59.750358
PG11  12149.868713  20496.011560 -11775.982702   -700.048975
PG12  22298.584368  -7497.986905  12001.635337   -520.164118
PG13  21961.305111  14224.227909  -5466.017415    662.856311
PG14  -9237.987271  21068.978830  13122.817193    442.747718
PG15  26440.177776   3296.958558    446.766371    178.222948
PG16 -14192.200668  -7842.115717 -21439.373781   -243.894014
PG17   -747.570393  15690.127263  21817.455126    682.439906
PG18   7517.285464 -19033.332348 -16801.815874   -633.690500
PG19   9547.417471  17259.398012  17810.039760    506.778060
PG20   9904.183346  12120.472453 -21407.399617    373.039649
PG21 -17038.610702  -7106.397186  19873.822956    110.626095
PG22  -2472.718486  18885.437045  19047.684426    -36.459032
PG23  15205.326262 -20816.556150   5948.151009    267.713544
PG24  16711.913662   2831.101324  20110.650351   -481.923248
PG25  20279.284746 -16535.305570   3320.938060    498.241647
PG26  -3842.472105 -17553.590249 -19599.651671    124.537891
PG27 -21412.801686 -13132.897879  -9547.965740    -30.459533
PG28  -4269.770913 -25928.500338   3854.586546   -320.404650
PG29  18509.472723  -6181.491495 -18123.126644   -590.824041
PG30   -459.494068  24988.296857  -8431.970813   -362.174581
PG31 -10540.090730 -22962.239895  -7730.569847   -226.953515
PG32  -2616.702243 -16111.876225  21202.465538   -613.419619
PR01    571.606141 -11026.383781  22994.770396     90.583723
PR02 -16861.628620  -7106.290333  17846.886923    -23.600920
PR03 -25406.435106    923.320052   2468.495662    103.357718
PR04 -19903.638493   7847.368567 -13871.366366    244.239505
PR05  -3820.148874  10797.897342 -22783.934946    134.163980
PR07  25396.816605  -1295.962641  -1604.801651     86.111481
PR08  19580.453375  -8221.722149  14165.577675     -5.681886
PR09   5714.641292  13167.864302  21088.161308    196.248787
PR11  14092.459131 -18217.031611  11001.428430     19.009765
PR12   6369.328175 -23221.504197  -8373.927917     42.139625
PR13  -3605.517027 -15419.061074 -20004.282092    -49.066473
PR14 -13272.814790   4051.973902 -21378.449823     26.654476
PR15 -13937.936600  19158.094330  -9414.413683     78.115197
PR16  -6397.905487  23250.998669   8270.837301     27.117267
PR17 -15586.508690  -7644.571249  18671.649294    102.314180
PR18  -7452.077551   7704.350535  23154.292913    150.653664
PR19   2665.680439  18738.351684  17101.047014   -282.955020
PR20  14347.653894  20902.258106  -2646.463284   -115.736097
PR21  15601.178545   8228.217583 -18446.729144   -115.389557
PR22   7184.342256  -8847.605190 -22798.185553     92.508872
PR24 -15498.743655 -19994.211424   3189.326748    -62.762249
PR25  15435.466882   7888.014623 -18722.133822    -95.083463
PR26  20532.371524  -7867.735372  12971.132436     -4.617304
EOF
